NUSAT-49 (KLARA DAN VO*)
1 60500U 24149AJ  26136.15443378  .00006863  00000+0  23687-3 0  9995
2 60500  97.3782 217.6602 0003815  66.1502 294.0138 15.30279158 97239
FLOCK 4BE-11            
1 60501U 24149AK  26136.26364603  .00016570  00000+0  39203-3 0  9998
2 60501  97.3705 220.0731 0004118  53.4542 306.7084 15.41867654 97435
YAM-7                   
1 60504U 24149AN  26136.23945578  .00005839  00000+0  19538-3 0  9999
2 60504  97.3788 216.6298 0004662  64.9752 295.1973 15.31347826 97163
FLOCK 4BE-24            
1 60505U 24149AP  26136.18565453  .00016942  00000+0  40147-3 0  9991
2 60505  97.3727 220.2427 0004320  62.3050 297.8635 15.41814519 97439
LUR-1                   
1 60506U 24149AQ  26136.25971331  .00005492  00000+0  19371-3 0  9999
2 60506  97.3745 215.3295 0005472  70.1495 290.0334 15.29659510 97094
TANAGER-1               
1 60507U 24149AR  26136.28969865  .00008038  00000+0  17470-3 0  9999
2 60507  97.3156 230.4447 0006044  63.6911 296.4958 15.44590010 98116
EAGLEEYE                
1 60508U 24149AS  26136.26187864  .00073112  00000+0  72659-3 0  9994
2 60508  97.3735 227.9778 0001537  35.7314 324.4048 15.65516738 97936
FLOCK 4BE-29            
1 60509U 24149AT  26136.28514420  .00015389  00000+0  35041-3 0  9995
2 60509  97.3810 221.7054 0003744  74.4283 285.7378 15.43037968 97492
TRANSPORTER-11 OBJECT AU
1 60510U 24149AU  26136.27862310  .00012656  00000+0  32665-3 0  9993
2 60510  97.3734 219.7677 0004538  61.6564 298.5139 15.39281574 97406
FLOCK 4BE-2             
1 60511U 24149AV  26136.25074439  .00048912  00000+0  89238-3 0  9991
2 60511  97.3827 222.7244 0003345  71.0712 289.0901 15.49282197 97550
FLOCK 4BE-13            
1 60512U 24149AW  26136.28147693  .00012063  00000+0  29458-3 0  9994
2 60512  97.3724 220.3841 0004464  43.7679 316.3920 15.40983734 97455
FLOCK 4BE-27            
1 60513U 24149AX  26136.23414333  .00007367  00000+0  22730-3 0  9995
2 60513  97.3829 218.0845 0005151  70.5780 289.6019 15.33857889 97246
FLOCK 4BE-9             
1 60514U 24149AY  26136.25697073  .00014083  00000+0  35725-3 0  9993
2 60514  97.3796 220.2442 0003809  75.3555 284.8113 15.39789484 97400
FLOCK 4BE-6             
1 60516U 24149BA  26136.19641677  .00011620  00000+0  30628-3 0  9998
2 60516  97.3791 219.5996 0004549  70.8723 289.3015 15.38657033 97359
FLOCK 4BE-14            
1 60517U 24149BB  26136.27312898  .00014121  00000+0  35615-3 0  9998
2 60517  97.3701 219.7878 0005305  66.4606 293.7197 15.39958097 97416
FLOCK 4BE-1             
1 60518U 24149BC  26136.25655568  .00016398  00000+0  39305-3 0  9999
2 60518  97.3784 220.9362 0004877  67.4627 292.7136 15.41474107 97451
FLOCK 4BE-28            
1 60519U 24149BD  26136.25314398  .00016887  00000+0  37531-3 0  9995
2 60519  97.3752 221.5597 0004936  61.5787 298.5958 15.43734961 97514
IPERDRONE.0             
1 60520U 24149BE  26136.25856161  .00060676  00000+0  68727-3 0  9992
2 60520  97.3784 228.0104 0001290  22.1997 337.9316 15.62220796 97921
TRANSPORTER-11 OBJECT BF
1 60521U 24149BF  26136.23760399  .00141290  00000+0  10161-2 0  9998
2 60521  97.3787 230.0198 0000867 291.1743  68.9429 15.73186514 98048
CONNECTA IOT-2          
1 60522U 24149BG  26136.20053712  .00003315  00000+0  14100-3 0  9993
2 60522  97.3844 214.8375 0008106  81.5950 278.6206 15.23682539 97028
PTD-R (TYVAK-0127)      
1 60523U 24149BH  26136.29155584  .00185334  00000+0  64971-3 0  9996
2 60523  97.3766 234.1888 0001592 224.5770 135.5374 15.88767396 98346
CONNECTA IOT-4          
1 60524U 24149BJ  26136.20482990  .00017290  00000+0  42206-3 0  9994
2 60524  97.3805 220.2278 0005943  58.0146 302.1678 15.40905117 97409
ORESAT0.5               
1 60525U 24149BK  26136.24105985  .00017529  00000+0  38819-3 0  9995
2 60525  97.3728 221.7842 0005880  48.3610 311.8141 15.43827875 97549
DEIMOS                  
1 60526U 24149BL  26136.25625099  .00017279  00000+0  39304-3 0  9992
2 60526  97.3786 221.9545 0006087  54.1082 306.0729 15.43031290 97528
CUAVA-2                 
1 60527U 24149BM  26136.22070803  .00010425  00000+0  30575-3 0  9994
2 60527  97.3729 217.7048 0007654  57.1814 303.0165 15.35339677 97267
ERNST                   
1 60528U 24149BN  26136.24010113  .00012050  00000+0  32088-3 0  9992
2 60528  97.3811 219.7427 0007046  61.3335 298.8618 15.38317794 97367
TORO                    
1 60530U 24149BQ  26136.27570769  .00001347  00000+0  12424-3 0  9995
2 60530  97.6788 211.5411 0001707  97.7681 262.3734 14.96295621 95184
HYPSO-2                 
1 60531U 24149BR  26136.28676498  .00001952  00000+0  16758-3 0  9999
2 60531  97.6821 213.0133 0002603 104.8035 255.3477 14.98621247 95275
LEMU NGE                
1 60532U 24149BS  26136.25644236  .00000910  00000+0  88780-4 0  9990
2 60532  97.6847 211.8635 0002555 108.6937 251.4562 14.94810421 95188
LEMUR-2-STELLA          
1 60533U 24149BT  26136.17119833  .00008912  00000+0  53636-3 0  9993
2 60533  97.6740 218.5057 0001976 119.9262 240.2164 15.11059933 95665
