OBJECT_NAME,OBJECT_ID,EPOCH,MEAN_MOTION,ECCENTRICITY,INCLINATION,RA_OF_ASC_NODE,ARG_OF_PERICENTER,MEAN_ANOMALY,EPHEMERIS_TYPE,CLASSIFICATION_TYPE,NORAD_CAT_ID,ELEMENT_SET_NO,REV_AT_EPOCH,BSTAR,MEAN_MOTION_DOT,MEAN_MOTION_DDOT
NUSAT-49 (KLARA DAN VON NEUMANN),2024-149AJ,2026-05-16T03:42:23.078592,15.30279158,.00038155,97.3782,217.6602,66.1502,294.0138,0,U,60500,999,9723,.23686587E-3,.6863E-4,0
FLOCK 4BE-11,2024-149AK,2026-05-16T06:19:39.016992,15.41867654,.00041186,97.3705,220.0731,53.4542,306.7084,0,U,60501,999,9743,.3920334E-3,.1657E-3,0
YAM-7,2024-149AN,2026-05-16T05:44:48.979392,15.31347826,.00046624,97.3788,216.6298,64.9752,295.1973,0,U,60504,999,9716,.19537675E-3,.5839E-4,0
FLOCK 4BE-24,2024-149AP,2026-05-16T04:27:20.551392,15.41814519,.000432,97.3727,220.2427,62.3050,297.8635,0,U,60505,999,9743,.40147176E-3,.16942E-3,0
LUR-1,2024-149AQ,2026-05-16T06:13:59.229984,15.29659510,.00054729,97.3745,215.3295,70.1495,290.0334,0,U,60506,999,9709,.19370803E-3,.5492E-4,0
TANAGER-1,2024-149AR,2026-05-16T06:57:09.963360,15.44590010,.00060449,97.3156,230.4447,63.6911,296.4958,0,U,60507,999,9811,.17470338E-3,.8038E-4,0
EAGLEEYE,2024-149AS,2026-05-16T06:17:06.314496,15.65516738,.00015374,97.3735,227.9778,35.7314,324.4048,0,U,60508,999,9793,.72658576E-3,.73112E-3,0
FLOCK 4BE-29,2024-149AT,2026-05-16T06:50:36.458880,15.43037968,.00037445,97.3810,221.7054,74.4283,285.7378,0,U,60509,999,9749,.35041407E-3,.15389E-3,0
TRANSPORTER-11 OBJECT AU,2024-149AU,2026-05-16T06:41:13.035840,15.39281574,.00045383,97.3734,219.7677,61.6564,298.5139,0,U,60510,999,9740,.32664837E-3,.12656E-3,0
FLOCK 4BE-2,2024-149AV,2026-05-16T06:01:04.315296,15.49282197,.00033456,97.3827,222.7244,71.0712,289.0901,0,U,60511,999,9755,.89238492E-3,.48912E-3,0
FLOCK 4BE-13,2024-149AW,2026-05-16T06:45:19.606752,15.40983734,.00044645,97.3724,220.3841,43.7679,316.3920,0,U,60512,999,9745,.29457863E-3,.12063E-3,0
FLOCK 4BE-27,2024-149AX,2026-05-16T05:37:09.983712,15.33857889,.00051514,97.3829,218.0845,70.5780,289.6019,0,U,60513,999,9724,.22730483E-3,.7367E-4,0
FLOCK 4BE-9,2024-149AY,2026-05-16T06:10:02.271072,15.39789484,.00038098,97.3796,220.2442,75.3555,284.8113,0,U,60514,999,9740,.35724591E-3,.14083E-3,0
FLOCK 4BE-6,2024-149BA,2026-05-16T04:42:50.408928,15.38657033,.00045497,97.3791,219.5996,70.8723,289.3015,0,U,60516,999,9735,.30628244E-3,.1162E-3,0
FLOCK 4BE-14,2024-149BB,2026-05-16T06:33:18.343872,15.39958097,.00053051,97.3701,219.7878,66.4606,293.7197,0,U,60517,999,9741,.35614506E-3,.14121E-3,0
FLOCK 4BE-1,2024-149BC,2026-05-16T06:09:26.410752,15.41474107,.00048773,97.3784,220.9362,67.4627,292.7136,0,U,60518,999,9745,.39305173E-3,.16398E-3,0
FLOCK 4BE-28,2024-149BD,2026-05-16T06:04:31.639872,15.43734961,.00049369,97.3752,221.5597,61.5787,298.5958,0,U,60519,999,9751,.37531138E-3,.16887E-3,0
IPERDRONE.0,2024-149BE,2026-05-16T06:12:19.723104,15.62220796,.00012905,97.3784,228.0104,22.1997,337.9316,0,U,60520,999,9792,.68727226E-3,.60676E-3,0
TRANSPORTER-11 OBJECT BF,2024-149BF,2026-05-16T05:42:08.984736,15.73186514,.00008675,97.3787,230.0198,291.1743,68.9429,0,U,60521,999,9804,.10160508E-2,.14129E-2,0
CONNECTA IOT-2,2024-149BG,2026-05-16T04:48:46.407168,15.23682539,.00081069,97.3844,214.8375,81.5950,278.6206,0,U,60522,999,9702,.14099578E-3,.3315E-4,0
PTD-R (TYVAK-0127),2024-149BH,2026-05-16T06:59:50.424576,15.88767396,.00015923,97.3766,234.1888,224.5770,135.5374,0,U,60523,999,9834,.64971081E-3,.185334E-2,0
CONNECTA IOT-4,2024-149BJ,2026-05-16T04:54:57.303360,15.40905117,.00059432,97.3805,220.2278,58.0146,302.1678,0,U,60524,999,9740,.42205579E-3,.1729E-3,0
ORESAT0.5,2024-149BK,2026-05-16T05:47:07.571040,15.43827875,.00058801,97.3728,221.7842,48.3610,311.8141,0,U,60525,999,9754,.38819335E-3,.17529E-3,0
DEIMOS,2024-149BL,2026-05-16T06:09:00.085536,15.43031290,.00060871,97.3786,221.9545,54.1082,306.0729,0,U,60526,999,9752,.39303658E-3,.17279E-3,0
CUAVA-2,2024-149BM,2026-05-16T05:17:49.173792,15.35339677,.00076549,97.3729,217.7048,57.1814,303.0165,0,U,60527,999,9726,.30574953E-3,.10425E-3,0
ERNST,2024-149BN,2026-05-16T05:45:44.737632,15.38317794,.0007046,97.3811,219.7427,61.3335,298.8618,0,U,60528,999,9736,.32088297E-3,.1205E-3,0
TORO,2024-149BQ,2026-05-16T06:37:01.144416,14.96295621,.00017074,97.6788,211.5411,97.7681,262.3734,0,U,60530,999,9518,.12424408E-3,.1347E-4,0
HYPSO-2,2024-149BR,2026-05-16T06:52:56.494272,14.98621247,.00026039,97.6821,213.0133,104.8035,255.3477,0,U,60531,999,9527,.1675802E-3,.1952E-4,0
LEMU NGE,2024-149BS,2026-05-16T06:09:16.619904,14.94810421,.0002555,97.6847,211.8635,108.6937,251.4562,0,U,60532,999,9518,.88779827E-4,.91E-5,0
LEMUR-2-STELLA,2024-149BT,2026-05-16T04:06:31.535712,15.11059933,.00019761,97.6740,218.5057,119.9262,240.2164,0,U,60533,999,9566,.53636311E-3,.8912E-4,0
